[{"OBJECT_NAME":"STARLINK-3308","OBJECT_ID":"2022-001AV","EPOCH":"2026-03-09T12:57:26.773344","MEAN_MOTION":15.08840261,"ECCENTRICITY":0.00013789,"INCLINATION":53.2172,"RA_OF_ASC_NODE":179.909,"ARG_OF_PERICENTER":92.9223,"MEAN_ANOMALY":267.1927,"EPHEMERIS_TYPE":0,"CLASSIFICATION_TYPE":"U","NORAD_CAT_ID":50846,"ELEMENT_SET_NO":999,"REV_AT_EPOCH":23024,"BSTAR":1.7280049e-5,"MEAN_MOTION_DOT":-1.3e-7,"MEAN_MOTION_DDOT":0},{"OBJECT_NAME":"RAAF M1","OBJECT_ID":"2018-099X","EPOCH":"2026-03-09T15:51:10.230048","MEAN_MOTION":15.07065376,"ECCENTRICITY":0.00134971,"INCLINATION":97.4534,"RA_OF_ASC_NODE":114.8325,"ARG_OF_PERICENTER":21.6261,"MEAN_ANOMALY":338.5534,"EPHEMERIS_TYPE":0,"CLASSIFICATION_TYPE":"U","NORAD_CAT_ID":43779,"ELEMENT_SET_NO":999,"REV_AT_EPOCH":39714,"BSTAR":0.00026511092,"MEAN_MOTION_DOT":3.923e-5,"MEAN_MOTION_DDOT":0}]
